{
  "links" : {
    "next" : "https://api.nasa.gov/neo/rest/v1/feed?start_date=2004-05-09&end_date=2004-05-09&detailed=true&api_key=t0TVs3DtDT2H8Oy2Zy8m2eVrNsAVKAexjcZXUckd",
    "prev" : "https://api.nasa.gov/neo/rest/v1/feed?start_date=2004-05-07&end_date=2004-05-07&detailed=true&api_key=t0TVs3DtDT2H8Oy2Zy8m2eVrNsAVKAexjcZXUckd",
    "self" : "https://api.nasa.gov/neo/rest/v1/feed?start_date=2004-05-08&end_date=2004-05-08&detailed=true&api_key=t0TVs3DtDT2H8Oy2Zy8m2eVrNsAVKAexjcZXUckd"
  },
  "element_count" : 5,
  "near_earth_objects" : {
    "2004-05-08" : [ {
      "links" : {
        "self" : "https://api.nasa.gov/neo/rest/v1/neo/2089136?api_key=t0TVs3DtDT2H8Oy2Zy8m2eVrNsAVKAexjcZXUckd"
      },
      "neo_reference_id" : "2089136",
      "name" : "89136 (2001 US16)",
      "nasa_jpl_url" : "http://ssd.jpl.nasa.gov/sbdb.cgi?sstr=2089136",
      "absolute_magnitude_h" : 20.2,
      "estimated_diameter" : {
        "kilometers" : {
          "estimated_diameter_min" : 0.2424124811,
          "estimated_diameter_max" : 0.5420507863
        },
        "meters" : {
          "estimated_diameter_min" : 242.4124811008,
          "estimated_diameter_max" : 542.0507863358
        },
        "miles" : {
          "estimated_diameter_min" : 0.1506280858,
          "estimated_diameter_max" : 0.3368146392
        },
        "feet" : {
          "estimated_diameter_min" : 795.3165644948,
          "estimated_diameter_max" : 1778.3819018419
        }
      },
      "is_potentially_hazardous_asteroid" : true,
      "close_approach_data" : [ {
        "close_approach_date" : "2004-05-08",
        "epoch_date_close_approach" : 1083999600000,
        "relative_velocity" : {
          "kilometers_per_second" : "4.0998806095",
          "kilometers_per_hour" : "14759.5701942905",
          "miles_per_hour" : "9171.0229354468"
        },
        "miss_distance" : {
          "astronomical" : "0.0284988633",
          "lunar" : "11.086057663",
          "kilometers" : "4263369.5",
          "miles" : "2649135"
        },
        "orbiting_body" : "Earth"
      } ],
      "orbital_data" : {
        "orbit_id" : "156",
        "orbit_determination_date" : "2017-04-06 09:28:21",
        "orbit_uncertainty" : "0",
        "minimum_orbit_intersection" : ".0288979",
        "jupiter_tisserand_invariant" : "4.824",
        "epoch_osculation" : "2458000.5",
        "eccentricity" : ".2528673849048111",
        "semi_major_axis" : "1.356089361891685",
        "inclination" : "1.905224206534743",
        "ascending_node_longitude" : "175.9636591400842",
        "orbital_period" : "576.8074890699737",
        "perihelion_distance" : "1.013178591252901",
        "perihelion_argument" : "67.10795473338219",
        "aphelion_distance" : "1.69900013253047",
        "perihelion_time" : "2457760.496469231306",
        "mean_anomaly" : "149.7922144111558",
        "mean_motion" : ".624125044874942",
        "equinox" : "J2000"
      }
    }, {
      "links" : {
        "self" : "https://api.nasa.gov/neo/rest/v1/neo/2222073?api_key=t0TVs3DtDT2H8Oy2Zy8m2eVrNsAVKAexjcZXUckd"
      },
      "neo_reference_id" : "2222073",
      "name" : "222073 (1999 HY1)",
      "nasa_jpl_url" : "http://ssd.jpl.nasa.gov/sbdb.cgi?sstr=2222073",
      "absolute_magnitude_h" : 18.1,
      "estimated_diameter" : {
        "kilometers" : {
          "estimated_diameter_min" : 0.6376097899,
          "estimated_diameter_max" : 1.4257388333
        },
        "meters" : {
          "estimated_diameter_min" : 637.6097898754,
          "estimated_diameter_max" : 1425.7388332807
        },
        "miles" : {
          "estimated_diameter_min" : 0.3961922327,
          "estimated_diameter_max" : 0.8859127646
        },
        "feet" : {
          "estimated_diameter_min" : 2091.8957030147,
          "estimated_diameter_max" : 4677.6209937807
        }
      },
      "is_potentially_hazardous_asteroid" : false,
      "close_approach_data" : [ {
        "close_approach_date" : "2004-05-08",
        "epoch_date_close_approach" : 1083999600000,
        "relative_velocity" : {
          "kilometers_per_second" : "18.5326146429",
          "kilometers_per_hour" : "66717.4127144317",
          "miles_per_hour" : "41455.6056946979"
        },
        "miss_distance" : {
          "astronomical" : "0.4415567021",
          "lunar" : "171.7655487061",
          "kilometers" : "66055940",
          "miles" : "41045260"
        },
        "orbiting_body" : "Earth"
      } ],
      "orbital_data" : {
        "orbit_id" : "113",
        "orbit_determination_date" : "2017-09-22 06:51:12",
        "orbit_uncertainty" : "0",
        "minimum_orbit_intersection" : ".343076",
        "jupiter_tisserand_invariant" : "4.600",
        "epoch_osculation" : "2458000.5",
        "eccentricity" : ".1306926626670418",
        "semi_major_axis" : "1.38631156117984",
        "inclination" : "34.22758436586313",
        "ascending_node_longitude" : "216.118823113773",
        "orbital_period" : "596.1968738212847",
        "perihelion_distance" : "1.205130811963143",
        "perihelion_argument" : "89.8693062121601",
        "aphelion_distance" : "1.567492310396537",
        "perihelion_time" : "2457988.195283020160",
        "mean_anomaly" : "7.429925092277958",
        "mean_motion" : ".6038273862333489",
        "equinox" : "J2000"
      }
    }, {
      "links" : {
        "self" : "https://api.nasa.gov/neo/rest/v1/neo/2387816?api_key=t0TVs3DtDT2H8Oy2Zy8m2eVrNsAVKAexjcZXUckd"
      },
      "neo_reference_id" : "2387816",
      "name" : "387816 (2004 FM17)",
      "nasa_jpl_url" : "http://ssd.jpl.nasa.gov/sbdb.cgi?sstr=2387816",
      "absolute_magnitude_h" : 19.5,
      "estimated_diameter" : {
        "kilometers" : {
          "estimated_diameter_min" : 0.3346223745,
          "estimated_diameter_max" : 0.7482383761
        },
        "meters" : {
          "estimated_diameter_min" : 334.6223744549,
          "estimated_diameter_max" : 748.2383760735
        },
        "miles" : {
          "estimated_diameter_min" : 0.2079246394,
          "estimated_diameter_max" : 0.464933628
        },
        "feet" : {
          "estimated_diameter_min" : 1097.8424710066,
          "estimated_diameter_max" : 2454.8503937571
        }
      },
      "is_potentially_hazardous_asteroid" : false,
      "close_approach_data" : [ {
        "close_approach_date" : "2004-05-08",
        "epoch_date_close_approach" : 1083999600000,
        "relative_velocity" : {
          "kilometers_per_second" : "9.997505947",
          "kilometers_per_hour" : "35991.0214093742",
          "miles_per_hour" : "22363.4210529525"
        },
        "miss_distance" : {
          "astronomical" : "0.1511745757",
          "lunar" : "58.8069114685",
          "kilometers" : "22615394",
          "miles" : "14052555"
        },
        "orbiting_body" : "Earth"
      } ],
      "orbital_data" : {
        "orbit_id" : "41",
        "orbit_determination_date" : "2017-04-06 09:22:04",
        "orbit_uncertainty" : "0",
        "minimum_orbit_intersection" : ".0604786",
        "jupiter_tisserand_invariant" : "6.670",
        "epoch_osculation" : "2458000.5",
        "eccentricity" : ".2498410798940218",
        "semi_major_axis" : ".885459246086741",
        "inclination" : "6.761627755635271",
        "ascending_node_longitude" : "169.8732745569955",
        "orbital_period" : "304.3345736341963",
        "perihelion_distance" : ".6642351518422832",
        "perihelion_argument" : "196.4919394360388",
        "aphelion_distance" : "1.106683340331199",
        "perihelion_time" : "2458096.632364097839",
        "mean_anomaly" : "246.2841948518812",
        "mean_motion" : "1.182908651163349",
        "equinox" : "J2000"
      }
    } ]
  }
}